     2.100          NAVIGATION                              RINEX VERSION / TYPE
fic2rin                                 03/11/2010 00:41:26 PGM / RUN BY / DATE
                                                            END OF HEADER
 5 10  3 10  1 59 44.0 -.433530658484D-05  .147792889038D-11  .000000000000D+00
     .100000000000D+01  .204062500000D+02  .452125975719D-08  .209799578949D+00
     .111013650894D-05  .190788914915D-02  .813789665699D-05  .515366422081D+04
     .266384000000D+06  .260770320892D-07  .179172935601D+01 -.204890966415D-07
     .958970694419D+00  .220656250000D+03  .344671403622D+00 -.799461872225D-08
    -.313941648358D-09  .100000000000D+01  .157400000000D+04  .000000000000D+00
     .240000000000D+01  .000000000000D+00 -.884756445885D-08  .100000000000D+01
     .259206000000D+06  .400000000000D+01
 2 10  3 10  2  0  0.0  .234695617110D-03  .386535248253D-11  .000000000000D+00
     .460000000000D+02  .129062500000D+02  .514414284563D-08 -.125711909997D+01
     .637024641037D-06  .940847233869D-02  .651180744171D-05  .515377912331D+04
     .266400000000D+06 -.875443220139D-07  .732184474377D+00 -.180676579475D-06
     .940255533691D+00  .244843750000D+03  .298361902933D+01 -.824284334751D-08
     .219652006531D-09  .100000000000D+01  .157400000000D+04  .000000000000D+00
     .240000000000D+01  .000000000000D+00 -.172294676304D-07  .460000000000D+02
     .259206000000D+06  .400000000000D+01
 3 10  3 10  2  0  0.0  .526043586433D-03  .511590769747D-11  .000000000000D+00
     .650000000000D+02 -.286875000000D+02  .510628412580D-08 -.138538941610D+01
    -.144354999065D-05  .128738427302D-01  .929832458496D-05  .515369969368D+04
     .266400000000D+06  .318512320518D-06 -.418760816600D+00  .130385160446D-06
     .927315964764D+00  .180125000000D+03  .983183805575D+00 -.820819904729D-08
     .132148361653D-09  .100000000000D+01  .157400000000D+04  .000000000000D+00
     .240000000000D+01  .000000000000D+00 -.419095158577D-08  .650000000000D+02
     .259206000000D+06  .400000000000D+01
 4 10  3 10  2  0  0.0  .330270268023D-04  .886757334229D-11  .000000000000D+00
     .640000000000D+02  .166875000000D+02  .523914680292D-08  .176257573643D+01
     .860542058945D-06  .911332713440D-02  .673159956932D-05  .515364241600D+04
     .266400000000D+06 -.150874257088D-06  .750152417511D+00  .335276126862D-07
     .939393101059D+00  .242125000000D+03  .599475969072D+00 -.834677624816D-08
     .500020827875D-11  .100000000000D+01  .157400000000D+04  .000000000000D+00
     .240000000000D+01  .000000000000D+00 -.605359673500D-08  .640000000000D+02
     .259206000000D+06  .400000000000D+01
 6 10  3 10  2  0  0.0  .691607594490D-03 -.693489710102D-11  .000000000000D+00
     .850000000000D+02 -.326562500000D+02  .497485007962D-08  .869863265799D+00
    -.189058482647D-05  .608245306648D-02  .951066613197D-05  .515366935349D+04
     .266400000000D+06  .372529029846D-08 -.348819027998D+00 -.141561031342D-06
     .934717140892D+00  .184312500000D+03 -.113012914582D+01 -.825605818368D-08
     .141077305007D-09  .100000000000D+01  .157400000000D+04  .000000000000D+00
     .240000000000D+01  .000000000000D+00 -.465661287308D-08  .850000000000D+02
     .259206000000D+06  .400000000000D+01
 7 10  3 10  2  0  0.0  .185985118151D-05 -.454747350886D-12  .000000000000D+00
     .260000000000D+02  .484375000000D+01  .451161649836D-08 -.291574948321D+01
     .299885869026D-06  .327564845793D-02  .361725687981D-05  .515372152519D+04
     .266400000000D+06 -.540167093277D-07 -.239183829024D+01 -.353902578354D-07
     .970814348989D+00  .316906250000D+03  .306453642958D+01 -.815426822943D-08
     .800033324599D-10  .100000000000D+01  .157400000000D+04  .000000000000D+00
     .240000000000D+01  .000000000000D+00 -.107102096081D-07  .260000000000D+02
     .259206000000D+06  .400000000000D+01
 8 10  3 10  2  0  0.0  .398792326450D-05  .341060513165D-12  .000000000000D+00
     .104000000000D+03 -.421875000000D+01  .402802492626D-08  .275989743249D+01
    -.171363353729D-06  .109570405912D-01  .365078449249D-05  .515371127129D+04
     .266400000000D+06 -.245869159698D-06 -.232556489746D+01  .391155481339D-07
     .992099760229D+00  .329031250000D+03  .309106576576D+01 -.787604235449D-08
     .628597612185D-10  .100000000000D+01  .157400000000D+04  .000000000000D+00
     .485000000000D+01  .000000000000D+00 -.419095158577D-08  .104000000000D+03
     .259206000000D+06  .400000000000D+01
 9 10  3 10  2  0  0.0  .110600143671D-03  .227373675443D-11  .000000000000D+00
     .700000000000D+02  .133125000000D+02  .421660420992D-08  .264108424975D+01
     .568106770515D-06  .207419589860D-01  .289827585220D-05  .515360304451D+04
     .266400000000D+06  .208616256714D-06 -.242379778669D+01 -.154599547386D-06
     .979632105266D+00  .328437500000D+03  .153294491754D+01 -.781782564382D-08
     .000000000000D+00  .100000000000D+01  .157400000000D+04  .000000000000D+00
     .340000000000D+01  .000000000000D+00 -.558793544769D-08  .700000000000D+02
     .259206000000D+06  .400000000000D+01
10 10  3 10  2  0  0.0 -.374559313059D-04 -.909494701773D-12  .000000000000D+00
     .176000000000D+03  .222812500000D+02  .468555231492D-08  .229470651311D+00
     .122375786304D-05  .916939089075D-02  .808201730251D-05  .515346637344D+04
     .266400000000D+06  .279396772385D-07  .181794791427D+01  .111758708954D-06
     .954018773774D+00  .220468750000D+03  .657290754890D+00 -.817676916669D-08
    -.338942689752D-09  .100000000000D+01  .157400000000D+04  .000000000000D+00
     .485000000000D+01  .000000000000D+00 -.279396772385D-08  .176000000000D+03
     .259206000000D+06  .400000000000D+01
11 10  3 10  2  0  0.0 -.496804714203D-04 -.216004991671D-11  .000000000000D+00
     .250000000000D+02  .215000000000D+02  .624383150922D-08 -.301114931162D+01
     .106357038021D-05  .105174104683D-01  .633113086224D-05  .515372498131D+04
     .266400000000D+06  .186264514923D-07  .517577038567D+00 -.141561031342D-06
     .888851292933D+00  .218875000000D+03  .796456425527D+00 -.869643366994D-08
     .216437586923D-09  .100000000000D+01  .157400000000D+04  .000000000000D+00
     .240000000000D+01  .000000000000D+00 -.116415321827D-07  .250000000000D+02
     .259206000000D+06  .400000000000D+01
12 10  3 10  2  0  0.0 -.140666496009D-03  .466116034659D-11  .000000000000D+00
     .850000000000D+02 -.947187500000D+02  .421624705218D-08 -.283494349148D+01
    -.490248203278D-05  .347324123140D-02  .662542879581D-05  .515374152184D+04
     .266400000000D+06 -.335276126862D-07 -.133802827276D+01  .465661287308D-07
     .969687028706D+00  .254656250000D+03 -.532686855243D+00 -.791961559806D-08
    -.127505311108D-09  .100000000000D+01  .157400000000D+04  .000000000000D+00
     .240000000000D+01  .000000000000D+00 -.121071934700D-07  .850000000000D+02
     .259206000000D+06  .400000000000D+01
13 10  3 10  2  0  0.0  .306136906147D-03 -.227373675443D-12  .000000000000D+00
     .160000000000D+02  .684687500000D+02  .378587198248D-08 -.403015163062D+00
     .344216823578D-05  .424145977013D-02  .751391053200D-05  .515357795143D+04
     .266400000000D+06 -.298023223877D-07  .290878378122D+01  .447034835815D-07
     .993658199544D+00  .256031250000D+03  .164183800304D+01 -.774532262378D-08
     .796461747257D-10  .100000000000D+01  .157400000000D+04  .000000000000D+00
     .240000000000D+01  .000000000000D+00 -.111758708954D-07  .160000000000D+02
     .259206000000D+06  .400000000000D+01
14 10  3 10  2  0  0.0  .202478840947D-04  .409272615798D-11  .000000000000D+00
     .220000000000D+02  .647812500000D+02  .394087843912D-08 -.587735401950D+00
     .344403088093D-05  .494465464726D-02  .823847949505D-05  .515372009468D+04
     .266400000000D+06 -.726431608200D-07  .288749625899D+01  .633299350739D-07
     .986959218242D+00  .236156250000D+03 -.210321067844D+01 -.782068290569D-08
     .392873507616D-10  .100000000000D+01  .157400000000D+04  .000000000000D+00
     .240000000000D+01  .000000000000D+00 -.884756445885D-08  .220000000000D+02
     .259206000000D+06  .400000000000D+01
16 10  3 10  2  0  0.0 -.494597479701D-04 -.397903932026D-11  .000000000000D+00
     .760000000000D+02 -.822500000000D+02  .427374944739D-08  .111190587667D+01
    -.419095158577D-05  .575082807336D-02  .620819628239D-05  .515372829819D+04
     .266400000000D+06  .838190317154D-07 -.132069456021D+01  .521540641785D-07
     .970962181249D+00  .260593750000D+03 -.269204533312D+00 -.800211903466D-08
    -.203222750758D-09  .100000000000D+01  .157400000000D+04  .000000000000D+00
     .240000000000D+01  .000000000000D+00 -.977888703346D-08  .760000000000D+02
     .259206000000D+06  .400000000000D+01
17 10  3 10  2  0  0.0  .135776121169D-03  .284217094304D-11  .000000000000D+00
     .850000000000D+02 -.204375000000D+02  .453376027789D-08 -.152019266796D+00
    -.107288360596D-05  .524623948149D-02  .939518213272D-05  .515357276344D+04
     .266400000000D+06  .521540641785D-07 -.277631112610D+00  .931322574615D-07
     .960486814440D+00  .199531250000D+03 -.255686312258D+01 -.801319092442D-08
     .234652631367D-09  .100000000000D+01  .157400000000D+04  .000000000000D+00
     .240000000000D+01  .000000000000D+00 -.102445483208D-07  .850000000000D+02
     .259206000000D+06  .400000000000D+01
18 10  3 10  2  0  0.0  .541112385690D-04  .261479726760D-11  .000000000000D+00
     .104000000000D+03  .837500000000D+01  .508735476589D-08  .132887836971D+01
     .486150383949D-06  .110181086930D-01  .828132033348D-05  .515367538261D+04
     .266400000000D+06 -.191852450371D-06  .181906970326D+01  .968575477600D-07
     .938011044314D+00  .206750000000D+03 -.235002927942D+01 -.841570769086D-08
    -.412517182996D-09  .100000000000D+01  .157400000000D+04  .000000000000D+00
     .240000000000D+01  .000000000000D+00 -.107102096081D-07  .104000000000D+03
     .259206000000D+06  .400000000000D+01
